[{"OBJECT_NAME":"BEIDOU-3 M2 (C20)","OBJECT_ID":"2017-069B","EPOCH":"2026-03-04T08:45:56.367072","MEAN_MOTION":1.86230543,"ECCENTRICITY":0.00097094,"INCLINATION":56.5998,"RA_OF_ASC_NODE":66.5715,"ARG_OF_PERICENTER":329.0395,"MEAN_ANOMALY":30.928,"EPHEMERIS_TYPE":0,"CLASSIFICATION_TYPE":"U","NORAD_CAT_ID":43002,"ELEMENT_SET_NO":999,"REV_AT_EPOCH":5664,"BSTAR":0,"MEAN_MOTION_DOT":-2.4e-7,"MEAN_MOTION_DDOT":0},{"OBJECT_NAME":"BEIDOU-3 M7 (C27)","OBJECT_ID":"2018-003A","EPOCH":"2026-03-04T02:34:26.616864","MEAN_MOTION":1.86232236,"ECCENTRICITY":0.00046539,"INCLINATION":54.4212,"RA_OF_ASC_NODE":305.9804,"ARG_OF_PERICENTER":71.0897,"MEAN_ANOMALY":289.0191,"EPHEMERIS_TYPE":0,"CLASSIFICATION_TYPE":"U","NORAD_CAT_ID":43107,"ELEMENT_SET_NO":999,"REV_AT_EPOCH":5539,"BSTAR":0,"MEAN_MOTION_DOT":-6.2e-7,"MEAN_MOTION_DDOT":0},{"OBJECT_NAME":"BEIDOU-3 M8 (C28)","OBJECT_ID":"2018-003B","EPOCH":"2026-03-05T03:02:28.054176","MEAN_MOTION":1.8623077,"ECCENTRICITY":0.0003033,"INCLINATION":54.4128,"RA_OF_ASC_NODE":305.9274,"ARG_OF_PERICENTER":294.0648,"MEAN_ANOMALY":65.96,"EPHEMERIS_TYPE":0,"CLASSIFICATION_TYPE":"U","NORAD_CAT_ID":43108,"ELEMENT_SET_NO":999,"REV_AT_EPOCH":5542,"BSTAR":0,"MEAN_MOTION_DOT":-6.7e-7,"MEAN_MOTION_DDOT":0},{"OBJECT_NAME":"BEIDOU-3 M4 (C22)","OBJECT_ID":"2018-018A","EPOCH":"2026-03-03T10:06:22.837824","MEAN_MOTION":1.86230898,"ECCENTRICITY":0.00068671,"INCLINATION":56.5592,"RA_OF_ASC_NODE":66.6343,"ARG_OF_PERICENTER":350.5022,"MEAN_ANOMALY":9.5144,"EPHEMERIS_TYPE":0,"CLASSIFICATION_TYPE":"U","NORAD_CAT_ID":43207,"ELEMENT_SET_NO":999,"REV_AT_EPOCH":5477,"BSTAR":0,"MEAN_MOTION_DOT":-1.6e-7,"MEAN_MOTION_DDOT":0},{"OBJECT_NAME":"BEIDOU-3 M3 (C21)","OBJECT_ID":"2018-018B","EPOCH":"2026-03-03T11:42:03.914784","MEAN_MOTION":1.8623101,"ECCENTRICITY":0.0009891,"INCLINATION":56.5588,"RA_OF_ASC_NODE":66.6362,"ARG_OF_PERICENTER":319.5859,"MEAN_ANOMALY":40.3698,"EPHEMERIS_TYPE":0,"CLASSIFICATION_TYPE":"U","NORAD_CAT_ID":43208,"ELEMENT_SET_NO":999,"REV_AT_EPOCH":5477,"BSTAR":0,"MEAN_MOTION_DOT":-1.7e-7,"MEAN_MOTION_DDOT":0},{"OBJECT_NAME":"BEIDOU-3 M9 (C29)","OBJECT_ID":"2018-029A","EPOCH":"2026-03-04T18:41:11.730336","MEAN_MOTION":1.86228195,"ECCENTRICITY":9.376e-5,"INCLINATION":54.2878,"RA_OF_ASC_NODE":303.6009,"ARG_OF_PERICENTER":21.7845,"MEAN_ANOMALY":338.2765,"EPHEMERIS_TYPE":0,"CLASSIFICATION_TYPE":"U","NORAD_CAT_ID":43245,"ELEMENT_SET_NO":999,"REV_AT_EPOCH":5395,"BSTAR":0,"MEAN_MOTION_DOT":-6.2e-7,"MEAN_MOTION_DDOT":0},{"OBJECT_NAME":"BEIDOU-3 M10 (C30)","OBJECT_ID":"2018-029B","EPOCH":"2026-03-04T04:14:12.313824","MEAN_MOTION":1.86228884,"ECCENTRICITY":0.00051026,"INCLINATION":54.286,"RA_OF_ASC_NODE":303.6493,"ARG_OF_PERICENTER":23.7928,"MEAN_ANOMALY":336.2892,"EPHEMERIS_TYPE":0,"CLASSIFICATION_TYPE":"U","NORAD_CAT_ID":43246,"ELEMENT_SET_NO":999,"REV_AT_EPOCH":5392,"BSTAR":0,"MEAN_MOTION_DOT":-5.9e-7,"MEAN_MOTION_DDOT":0},{"OBJECT_NAME":"BEIDOU-2 IGSO-7 (C16)","OBJECT_ID":"2018-057A","EPOCH":"2026-02-25T17:45:22.620960","MEAN_MOTION":1.00284731,"ECCENTRICITY":0.00999628,"INCLINATION":55.1859,"RA_OF_ASC_NODE":164.0342,"ARG_OF_PERICENTER":236.5988,"MEAN_ANOMALY":133.5173,"EPHEMERIS_TYPE":0,"CLASSIFICATION_TYPE":"U","NORAD_CAT_ID":43539,"ELEMENT_SET_NO":999,"REV_AT_EPOCH":2801,"BSTAR":0,"MEAN_MOTION_DOT":-1.61e-6,"MEAN_MOTION_DDOT":0},{"OBJECT_NAME":"BEIDOU-3 M5 (C23)","OBJECT_ID":"2018-062A","EPOCH":"2026-03-04T22:30:09.632736","MEAN_MOTION":1.8622871,"ECCENTRICITY":0.00021416,"INCLINATION":54.0879,"RA_OF_ASC_NODE":185.8478,"ARG_OF_PERICENTER":309.8592,"MEAN_ANOMALY":50.0878,"EPHEMERIS_TYPE":0,"CLASSIFICATION_TYPE":"U","NORAD_CAT_ID":43581,"ELEMENT_SET_NO":999,"REV_AT_EPOCH":5169,"BSTAR":0,"MEAN_MOTION_DOT":1.0e-8,"MEAN_MOTION_DDOT":0},{"OBJECT_NAME":"BEIDOU-3 M6 (C24)","OBJECT_ID":"2018-062B","EPOCH":"2026-03-03T17:26:18.514752","MEAN_MOTION":1.86227526,"ECCENTRICITY":0.00062557,"INCLINATION":54.0877,"RA_OF_ASC_NODE":185.8781,"ARG_OF_PERICENTER":44.1915,"MEAN_ANOMALY":315.8167,"EPHEMERIS_TYPE":0,"CLASSIFICATION_TYPE":"U","NORAD_CAT_ID":43582,"ELEMENT_SET_NO":999,"REV_AT_EPOCH":5167,"BSTAR":0,"MEAN_MOTION_DOT":-1.4e-7,"MEAN_MOTION_DDOT":0},{"OBJECT_NAME":"BEIDOU-3 M12 (C26)","OBJECT_ID":"2018-067A","EPOCH":"2026-03-02T14:11:11.114304","MEAN_MOTION":1.86227627,"ECCENTRICITY":0.0008588,"INCLINATION":54.1825,"RA_OF_ASC_NODE":184.6546,"ARG_OF_PERICENTER":39.8197,"MEAN_ANOMALY":320.1981,"EPHEMERIS_TYPE":0,"CLASSIFICATION_TYPE":"U","NORAD_CAT_ID":43602,"ELEMENT_SET_NO":999,"REV_AT_EPOCH":5113,"BSTAR":0,"MEAN_MOTION_DOT":-2.6e-7,"MEAN_MOTION_DDOT":0},{"OBJECT_NAME":"BEIDOU-3 M11 (C25)","OBJECT_ID":"2018-067B","EPOCH":"2026-03-04T20:58:08.027328","MEAN_MOTION":1.86227062,"ECCENTRICITY":0.00049996,"INCLINATION":54.18,"RA_OF_ASC_NODE":184.5411,"ARG_OF_PERICENTER":34.4488,"MEAN_ANOMALY":325.5512,"EPHEMERIS_TYPE":0,"CLASSIFICATION_TYPE":"U","NORAD_CAT_ID":43603,"ELEMENT_SET_NO":999,"REV_AT_EPOCH":5120,"BSTAR":0,"MEAN_MOTION_DOT":0,"MEAN_MOTION_DDOT":0},{"OBJECT_NAME":"BEIDOU-3 M13 (C32)","OBJECT_ID":"2018-072A","EPOCH":"2026-03-04T19:54:34.683840","MEAN_MOTION":1.86230808,"ECCENTRICITY":0.0008916,"INCLINATION":56.5333,"RA_OF_ASC_NODE":66.1018,"ARG_OF_PERICENTER":307.8246,"MEAN_ANOMALY":52.1164,"EPHEMERIS_TYPE":0,"CLASSIFICATION_TYPE":"U","NORAD_CAT_ID":43622,"ELEMENT_SET_NO":999,"REV_AT_EPOCH":5071,"BSTAR":0,"MEAN_MOTION_DOT":-2.9e-7,"MEAN_MOTION_DDOT":0},{"OBJECT_NAME":"BEIDOU-3 M14 (C33)","OBJECT_ID":"2018-072B","EPOCH":"2026-03-04T16:40:50.255904","MEAN_MOTION":1.86230841,"ECCENTRICITY":0.0006376,"INCLINATION":56.535,"RA_OF_ASC_NODE":66.1003,"ARG_OF_PERICENTER":328.815,"MEAN_ANOMALY":31.1695,"EPHEMERIS_TYPE":0,"CLASSIFICATION_TYPE":"U","NORAD_CAT_ID":43623,"ELEMENT_SET_NO":999,"REV_AT_EPOCH":5070,"BSTAR":0,"MEAN_MOTION_DOT":-2.8e-7,"MEAN_MOTION_DDOT":0},{"OBJECT_NAME":"BEIDOU-3 M16 (C35)","OBJECT_ID":"2018-078A","EPOCH":"2026-03-02T04:00:42.153984","MEAN_MOTION":1.86232266,"ECCENTRICITY":0.00084346,"INCLINATION":54.1863,"RA_OF_ASC_NODE":303.7392,"ARG_OF_PERICENTER":30.8134,"MEAN_ANOMALY":329.2965,"EPHEMERIS_TYPE":0,"CLASSIFICATION_TYPE":"U","NORAD_CAT_ID":43647,"ELEMENT_SET_NO":999,"REV_AT_EPOCH":5016,"BSTAR":0,"MEAN_MOTION_DOT":-4.8e-7,"MEAN_MOTION_DDOT":0},{"OBJECT_NAME":"BEIDOU-3 M15 (C34)","OBJECT_ID":"2018-078B","EPOCH":"2026-03-03T08:53:18.399840","MEAN_MOTION":1.86232017,"ECCENTRICITY":0.0005342,"INCLINATION":54.1808,"RA_OF_ASC_NODE":303.6975,"ARG_OF_PERICENTER":38.8897,"MEAN_ANOMALY":321.2084,"EPHEMERIS_TYPE":0,"CLASSIFICATION_TYPE":"U","NORAD_CAT_ID":43648,"ELEMENT_SET_NO":999,"REV_AT_EPOCH":5020,"BSTAR":0,"MEAN_MOTION_DOT":-5.5e-7,"MEAN_MOTION_DDOT":0},{"OBJECT_NAME":"BEIDOU-3 G1 (C59)","OBJECT_ID":"2018-085A","EPOCH":"2026-03-05T06:06:18.194400","MEAN_MOTION":1.00268333,"ECCENTRICITY":0.00013931,"INCLINATION":2.8129,"RA_OF_ASC_NODE":100.3639,"ARG_OF_PERICENTER":21.2833,"MEAN_ANOMALY":272.9442,"EPHEMERIS_TYPE":0,"CLASSIFICATION_TYPE":"U","NORAD_CAT_ID":43683,"ELEMENT_SET_NO":999,"REV_AT_EPOCH":2701,"BSTAR":0,"MEAN_MOTION_DOT":-2.86e-6,"MEAN_MOTION_DDOT":0}]
